NORAD_CAT_ID,OBJECT_NAME,OBJECT_TYPE,EPOCH,MEAN_MOTION,ECCENTRICITY,INCLINATION,RA_OF_ASC_NODE,ARG_OF_PERICENTER,MEAN_ANOMALY,BSTAR,MEAN_MOTION_DOT,MEAN_MOTION_DDOT,TLE_LINE0,TLE_LINE1,TLE_LINE2,SEMIMAJOR_AXIS,PERIOD,APOGEE,PERIGEE,DECAYED
53778.0,STARLINK-4709,PAYLOAD,2023-04-01 05:28:23,15.08841175,0.0001208,53.2166,57.8029,100.1165,259.9964,0.00077651,0.00012092,0.0,0 STARLINK-4709,1 53778U 22111F   23091.22805480  .00012092  00000-0  77651-3 0  9994,2 53778  53.2166  57.8029 0001208 100.1165 259.9964 15.08841175 30761,6917.877,95.437,540.577,538.906,0.0
53778.0,STARLINK-4709,PAYLOAD,2023-04-01 07:03:47,15.08842498,0.0001194,53.2164,57.5053,97.5112,262.6016,0.00076851,0.00011965,0.0,0 STARLINK-4709,1 53778U 22111F   23091.29429466  .00011965  00000-0  76851-3 0  9996,2 53778  53.2164  57.5053 0001194  97.5112 262.6016 15.08842498 31587,6917.873,95.437,540.564,538.912,0.0
53778.0,STARLINK-4709,PAYLOAD,2023-04-01 15:00:42,15.0884063,0.0001184,53.2172,56.0193,89.071,271.0417,0.00045174,6.909e-05,0.0,0 STARLINK-4709,1 53778U 22111F   23091.62549593  .00006909  00000-0  45174-3 0  9993,2 53778  53.2172  56.0193 0001184  89.0710 271.0417 15.08840630 30825,6917.878,95.438,540.563,538.924,0.0
53778.0,STARLINK-4709,PAYLOAD,2023-04-02 06:54:33,15.08849176,0.0001128,53.217,53.0452,94.7724,265.3397,0.00039559,6.015e-05,0.0,0 STARLINK-4709,1 53778U 22111F   23092.28789229  .00006015  00000-0  39559-3 0  9996,2 53778  53.2170  53.0452 0001128  94.7724 265.3397 15.08849176 31732,6917.852,95.437,540.498,538.937,0.0
53778.0,STARLINK-4709,PAYLOAD,2023-04-03 03:34:34,15.08847815,9.33e-05,53.2182,49.1803,98.9772,261.1325,0.00026172,3.881e-05,0.0,0 STARLINK-4709,1 53778U 22111F   23093.14901368  .00003881  00000-0  26172-3 0  9997,2 53778  53.2182  49.1803 0000933  98.9772 261.1325 15.08847815 31051,6917.857,95.437,540.367,539.076,0.0
53778.0,STARLINK-4709,PAYLOAD,2023-04-03 06:45:20,15.08852539,0.0001134,53.2176,48.5849,102.4278,257.6841,0.00049884,7.663e-05,0.0,0 STARLINK-4709,1 53778U 22111F   23093.28149276  .00007663  00000-0  49884-3 0  9991,2 53778  53.2176  48.5849 0001134 102.4278 257.6841 15.08852539 31886,6917.842,95.437,540.492,538.923,0.0
53778.0,STARLINK-4709,PAYLOAD,2023-04-03 21:03:49,15.0883969,0.0001186,53.2174,45.9086,112.6833,247.4285,0.00016941,2.409e-05,0.0,0 STARLINK-4709,1 53778U 22111F   23093.87765590  .00002409  00000-0  16941-3 0  9990,2 53778  53.2174  45.9086 0001186 112.6833 247.4285 15.08839690 31168,6917.881,95.438,540.567,538.926,0.0
53778.0,STARLINK-4709,PAYLOAD,2023-04-04 06:36:08,15.08850292,0.0001275,53.218,44.1239,102.7798,257.3337,0.00094416,0.00014774,0.0,0 STARLINK-4709,1 53778U 22111F   23094.27509629  .00014774  00000-0  94416-3 0  9995,2 53778  53.2180  44.1239 0001275 102.7798 257.3337 15.08850292 32031,6917.849,95.437,540.596,538.832,0.0
53778.0,STARLINK-4709,PAYLOAD,2023-04-04 20:54:36,15.08838446,0.0001722,53.2195,41.4523,116.038,244.0789,0.00015569,2.191e-05,0.0,0 STARLINK-4709,1 53778U 22111F   23094.87125914  .00002191  00000-0  15569-3 0  9994,2 53778  53.2195  41.4523 0001722 116.0380 244.0789 15.08838446 32126,6917.885,95.438,540.941,538.559,0.0
53778.0,STARLINK-4709,PAYLOAD,2023-04-05 04:51:32,15.08841722,0.0001385,53.2203,39.9654,107.4068,252.7076,0.00012275,1.666e-05,0.0,0 STARLINK-4709,1 53778U 22111F   23095.20245828  .00001666  00000-0  12275-3 0  9996,2 53778  53.2203  39.9654 0001385 107.4068 252.7076 15.08841722 31366,6917.875,95.437,540.698,538.782,0.0
53778.0,STARLINK-4709,PAYLOAD,2023-04-05 06:26:55,15.08844028,0.000135,53.22,39.6645,105.8927,254.2214,0.00017786,2.544e-05,0.0,0 STARLINK-4709,1 53778U 22111F   23095.26869699  .00002544  00000-0  17786-3 0  9998,2 53778  53.2200  39.6645 0001350 105.8927 254.2214 15.08844028 32182,6917.868,95.437,540.667,538.799,0.0
53778.0,STARLINK-4709,PAYLOAD,2023-04-06 06:17:42,15.08851654,0.0001162,53.2183,35.2043,104.5949,255.5172,0.00026818,3.984e-05,0.0,0 STARLINK-4709,1 53778U 22111F   23096.26229255  .00003984  00000-0  26818-3 0  9992,2 53778  53.2183  35.2043 0001162 104.5949 255.5172 15.08851654 31524,6917.845,95.437,540.514,538.906,0.0
53778.0,STARLINK-4709,PAYLOAD,2023-04-07 04:33:06,15.08841145,0.0001255,53.2183,31.0419,96.4832,263.6304,9.7114e-05,1.258e-05,0.0,0 STARLINK-4709,1 53778U 22111F   23097.18965964  .00001258  00000-0  97114-4 0  9998,2 53778  53.2183  31.0419 0001255  96.4832 263.6304 15.08841145 31664,6917.877,95.437,540.61,538.874,0.0
53778.0,STARLINK-4709,PAYLOAD,2023-04-08 05:59:16,15.08850363,0.0001205,53.2182,26.284,88.2588,271.8542,0.00024154,3.559e-05,0.0,0 STARLINK-4709,1 53778U 22111F   23098.24949481  .00003559  00000-0  24154-3 0  9991,2 53778  53.2182  26.2840 0001205  88.2588 271.8542 15.08850363 31824,6917.849,95.437,540.547,538.88,0.0
53778.0,STARLINK-4709,PAYLOAD,2023-04-08 18:42:22,15.08835958,0.0001397,53.2173,23.9048,102.0303,258.0846,0.00011246,1.502e-05,0.0,0 STARLINK-4709,1 53778U 22111F   23098.77942666  .00001502  00000-0  11246-3 0  9991,2 53778  53.2173  23.9048 0001397 102.0303 258.0846 15.08835958 31906,6917.893,95.438,540.724,538.791,0.0
53778.0,STARLINK-4709,PAYLOAD,2023-04-09 04:14:41,15.0883971,0.0001294,53.2164,22.1202,97.7622,262.3517,0.00011883,1.604e-05,0.0,0 STARLINK-4709,1 53778U 22111F   23099.17686371  .00001604  00000-0  11883-3 0  9994,2 53778  53.2164  22.1202 0001294  97.7622 262.3517 15.08839710 32778,6917.881,95.438,540.641,538.851,0.0
53778.0,STARLINK-4709,PAYLOAD,2023-04-09 18:33:09,15.08843094,0.000135,53.2158,19.4443,101.7928,258.3215,0.00011678,1.571e-05,0.0,0 STARLINK-4709,1 53778U 22111F   23099.77302383  .00001571  00000-0  11678-3 0  9993,2 53778  53.2158  19.4443 0001350 101.7928 258.3215 15.08843094 32865,6917.871,95.437,540.67,538.802,0.0
53778.0,STARLINK-4709,PAYLOAD,2023-04-10 04:05:27,15.08851917,0.0001143,53.2164,17.6612,97.6658,262.4464,0.00032957,4.963e-05,0.0,0 STARLINK-4709,1 53778U 22111F   23100.17045958  .00004963  00000-0  32957-3 0  9993,2 53778  53.2164  17.6612 0001143  97.6658 262.4464 15.08851917 32116,6917.844,95.437,540.5,538.918,0.0
53778.0,STARLINK-4709,PAYLOAD,2023-04-11 03:56:14,15.08855082,0.0001193,53.2164,13.2005,101.6777,258.4349,0.00032351,4.867e-05,0.0,0 STARLINK-4709,1 53778U 22111F   23101.16405620  .00004867  00000-0  32351-3 0  9990,2 53778  53.2164  13.2005 0001193 101.6777 258.4349 15.08855082 33077,6917.834,95.437,540.525,538.874,0.0
53778.0,STARLINK-4709,PAYLOAD,2023-04-12 03:47:02,15.08833175,0.0001146,53.2173,8.7406,92.2728,267.8395,-7.0531e-05,-1.41e-05,0.0,0 STARLINK-4709,1 53778U 22111F   23102.15766721 -.00001410  00000-0 -70531-4 0  9998,2 53778  53.2173   8.7406 0001146  92.2728 267.8395 15.08833175 32411,6917.901,95.438,540.559,538.973,0.0
53778.0,STARLINK-4709,PAYLOAD,2023-04-13 00:27:03,15.088461,0.0001117,53.2167,4.876,94.7201,265.3918,0.00030547,4.578e-05,0.0,0 STARLINK-4709,1 53778U 22111F   23103.01878730  .00004578  00000-0  30547-3 0  9996,2 53778  53.2167   4.8760 0001117  94.7201 265.3918 15.08846100 33355,6917.862,95.437,540.499,538.954,0.0
53778.0,STARLINK-4709,PAYLOAD,2023-04-14 03:28:36,15.08862225,0.0001044,53.2169,359.8208,94.8813,265.2299,0.00063248,9.798e-05,0.0,0 STARLINK-4709,1 53778U 22111F   23104.14486219  .00009798  00000-0  63248-3 0  9991,2 53778  53.2169 359.8208 0001044  94.8813 265.2299 15.08862225 32712,6917.812,95.436,540.4,538.955,0.0
53778.0,STARLINK-4709,PAYLOAD,2023-04-14 22:33:13,15.0884614,0.000113,53.217,356.254,79.5577,280.5543,0.00016219,2.295e-05,0.0,0 STARLINK-4709,1 53778U 22111F   23104.93974443  .00002295  00000-0  16219-3 0  9990,2 53778  53.2170 356.2540 0001130  79.5577 280.5543 15.08846140 32830,6917.862,95.437,540.508,538.945,0.0
53778.0,STARLINK-4709,PAYLOAD,2023-04-15 01:44:00,15.08848179,0.000118,53.2175,355.6584,81.359,278.7536,0.00014524,2.025e-05,0.0,0 STARLINK-4709,1 53778U 22111F   23105.07222344  .00002025  00000-0  14524-3 0  9990,2 53778  53.2175 355.6584 0001180  81.3590 278.7536 15.08848179 33664,6917.855,95.437,540.537,538.904,0.0
53778.0,STARLINK-4709,PAYLOAD,2023-04-15 20:48:37,15.08841037,9.03e-05,53.2172,352.0888,101.4314,258.6779,-2.9639e-05,-7.59e-06,0.0,0 STARLINK-4709,1 53778U 22111F   23105.86710331 -.00000759  00000-0 -29639-4 0  9993,2 53778  53.2172 352.0888 0000903 101.4314 258.6779 15.08841037 33784,6917.877,95.437,540.367,539.118,0.0
53778.0,STARLINK-4709,PAYLOAD,2023-04-16 03:10:10,15.08844896,9.93e-05,53.2166,350.8993,88.5224,271.5882,0.00027627,4.112e-05,0.0,0 STARLINK-4709,1 53778U 22111F   23106.13206416  .00004112  00000-0  27627-3 0  9997,2 53778  53.2166 350.8993 0000993  88.5224 271.5882 15.08844896 33824,6917.865,95.437,540.417,539.043,0.0
53778.0,STARLINK-4709,PAYLOAD,2023-04-16 22:14:48,15.08832615,0.0001008,53.2161,347.3334,52.8791,307.2293,7.797e-05,9.53e-06,0.0,0 STARLINK-4709,1 53778U 22111F   23106.92695330  .00000953  00000-0  77970-4 0  9997,2 53778  53.2161 347.3334 0001008  52.8791 307.2293 15.08832615 33942,6917.903,95.438,540.465,539.071,0.0
53778.0,STARLINK-4709,PAYLOAD,2023-04-17 01:25:34,15.08840343,0.0001054,53.2158,346.7376,61.9074,298.2025,0.00031217,4.684e-05,0.0,0 STARLINK-4709,1 53778U 22111F   23107.05943222  .00004684  00000-0  31217-3 0  9996,2 53778  53.2158 346.7376 0001054  61.9074 298.2025 15.08840343 33964,6917.879,95.438,540.473,539.015,0.0
53778.0,STARLINK-4709,PAYLOAD,2023-04-17 22:05:35,15.088428,9.89e-05,53.216,342.871,65.7191,294.3904,0.00022046,3.223e-05,0.0,0 STARLINK-4709,1 53778U 22111F   23107.92055487  .00003223  00000-0  22046-3 0  9997,2 53778  53.2160 342.8710 0000989  65.7191 294.3904 15.08842800 34092,6917.872,95.437,540.421,539.053,0.0
53778.0,STARLINK-4709,PAYLOAD,2023-04-18 01:16:22,15.08847311,0.0001108,53.2157,342.2756,69.6066,290.5046,0.00033097,4.984e-05,0.0,0 STARLINK-4709,1 53778U 22111F   23108.05303264  .00004984  00000-0  33097-3 0  9994,2 53778  53.2157 342.2756 0001108  69.6066 290.5046 15.08847311 34110,6917.858,95.437,540.49,538.957,0.0
